[{"OBJECT_NAME":"STARLINK-32797","OBJECT_ID":"2025-019Q","EPOCH":"2026-03-09T10:34:46.441056","MEAN_MOTION":15.27586348,"ECCENTRICITY":0.00016497,"INCLINATION":43.0038,"RA_OF_ASC_NODE":90.3174,"ARG_OF_PERICENTER":276.4887,"MEAN_ANOMALY":83.5777,"EPHEMERIS_TYPE":0,"CLASSIFICATION_TYPE":"U","NORAD_CAT_ID":62843,"ELEMENT_SET_NO":999,"REV_AT_EPOCH":6221,"BSTAR":0.00083782548,"MEAN_MOTION_DOT":0.00022869,"MEAN_MOTION_DDOT":0},{"OBJECT_NAME":"CZ-6A DEB","OBJECT_ID":"2022-151SD","EPOCH":"2026-03-09T21:25:15.700512","MEAN_MOTION":15.24469357,"ECCENTRICITY":0.00248717,"INCLINATION":98.6538,"RA_OF_ASC_NODE":157.5128,"ARG_OF_PERICENTER":174.047,"MEAN_ANOMALY":186.1065,"EPHEMERIS_TYPE":0,"CLASSIFICATION_TYPE":"U","NORAD_CAT_ID":54940,"ELEMENT_SET_NO":999,"REV_AT_EPOCH":17680,"BSTAR":0.0087519903,"MEAN_MOTION_DOT":0.00223015,"MEAN_MOTION_DDOT":0}]
